{
  "type": "FeatureCollection",
  "features": [
    {
      "type": "Feature",
      "properties": {
        "norad_id": 66425,
        "name": "STARLINK-35555",
        "group": "last-30-days",
        "lat": -5.7914771015798605,
        "lon": 100.51030436964153,
        "alt_km": 415.57770920298026,
        "timestamp": "2025-12-02T13:52:16.064531+00:00",
        "meta_object_name": "STARLINK-35555",
        "meta_object_id": "2025-259D",
        "meta_epoch": "2025-12-02T06:00:02.999808",
        "meta_mean_motion": 15.50491251,
        "meta_eccentricity": 0.00013744,
        "meta_inclination": 42.9993,
        "meta_ra_of_asc_node": 108.6776,
        "meta_arg_of_pericenter": 259.2587,
        "meta_mean_anomaly": 59.6395,
        "meta_ephemeris_type": 0,
        "meta_classification_type": "U",
        "meta_norad_cat_id": 66425,
        "meta_element_set_no": 999,
        "meta_rev_at_epoch": 459,
        "meta_bstar": 0.0018790007,
        "meta_mean_motion_dot": 0.0011112,
        "meta_mean_motion_ddot": 0,
        "tle_line1": "1 66425U 25259D   25336.25003472  .00111120  00000+0  18790-2 0  9990",
        "tle_line2": "2 66425  42.9993 108.6776 0001374 259.2587  59.6395 15.50491251  4597"
      },
      "geometry": {
        "type": "Point",
        "coordinates": [
          100.51030436964153,
          -5.7914771015798605
        ]
      }
    },
    {
      "type": "Feature",
      "properties": {
        "norad_id": 66426,
        "name": "STARLINK-35589",
        "group": "last-30-days",
        "lat": -4.503693286373668,
        "lon": 101.90702173661997,
        "alt_km": 415.48706258984294,
        "timestamp": "2025-12-02T13:52:16.064543+00:00",
        "meta_object_name": "STARLINK-35589",
        "meta_object_id": "2025-259E",
        "meta_epoch": "2025-12-02T06:00:02.999808",
        "meta_mean_motion": 15.50482062,
        "meta_eccentricity": 0.00014178,
        "meta_inclination": 42.9994,
        "meta_ra_of_asc_node": 108.6744,
        "meta_arg_of_pericenter": 258.8436,
        "meta_mean_anomaly": 61.9628,
        "meta_ephemeris_type": 0,
        "meta_classification_type": "U",
        "meta_norad_cat_id": 66426,
        "meta_element_set_no": 999,
        "meta_rev_at_epoch": 459,
        "meta_bstar": 0.0018942374,
        "meta_mean_motion_dot": 0.00112,
        "meta_mean_motion_ddot": 0,
        "tle_line1": "1 66426U 25259E   25336.25003472  .00112000  00000+0  18942-2 0  9998",
        "tle_line2": "2 66426  42.9994 108.6744 0001417 258.8436  61.9628 15.50482062  4595"
      },
      "geometry": {
        "type": "Point",
        "coordinates": [
          101.90702173661997,
          -4.503693286373668
        ]
      }
    },
    {
      "type": "Feature",
      "properties": {
        "norad_id": 66427,
        "name": "STARLINK-35611",
        "group": "last-30-days",
        "lat": -3.1936817624054035,
        "lon": 103.31730593164296,
        "alt_km": 415.43451067597834,
        "timestamp": "2025-12-02T13:52:16.064553+00:00",
        "meta_object_name": "STARLINK-35611",
        "meta_object_id": "2025-259F",
        "meta_epoch": "2025-12-02T06:00:02.999808",
        "meta_mean_motion": 15.50486045,
        "meta_eccentricity": 0.00015176,
        "meta_inclination": 42.9993,
        "meta_ra_of_asc_node": 108.6687,
        "meta_arg_of_pericenter": 254.4808,
        "meta_mean_anomaly": 68.2478,
        "meta_ephemeris_type": 0,
        "meta_classification_type": "U",
        "meta_norad_cat_id": 66427,
        "meta_element_set_no": 999,
        "meta_rev_at_epoch": 459,
        "meta_bstar": 0.0018432108,
        "meta_mean_motion_dot": 0.00108946,
        "meta_mean_motion_ddot": 0,
        "tle_line1": "1 66427U 25259F   25336.25003472  .00108946  00000+0  18432-2 0  9997",
        "tle_line2": "2 66427  42.9993 108.6687 0001517 254.4808  68.2478 15.50486045  4595"
      },
      "geometry": {
        "type": "Point",
        "coordinates": [
          103.31730593164296,
          -3.1936817624054035
        ]
      }
    },
    {
      "type": "Feature",
      "properties": {
        "norad_id": 66428,
        "name": "STARLINK-35610",
        "group": "last-30-days",
        "lat": -1.8950130795351863,
        "lon": 104.71074619877123,
        "alt_km": 415.2739182767409,
        "timestamp": "2025-12-02T13:52:16.064563+00:00",
        "meta_object_name": "STARLINK-35610",
        "meta_object_id": "2025-259G",
        "meta_epoch": "2025-12-02T06:00:02.999808",
        "meta_mean_motion": 15.50483155,
        "meta_eccentricity": 0.00014,
        "meta_inclination": 42.9994,
        "meta_ra_of_asc_node": 108.664,
        "meta_arg_of_pericenter": 256.1241,
        "meta_mean_anomaly": 68.5167,
        "meta_ephemeris_type": 0,
        "meta_classification_type": "U",
        "meta_norad_cat_id": 66428,
        "meta_element_set_no": 999,
        "meta_rev_at_epoch": 459,
        "meta_bstar": 0.0018315032,
        "meta_mean_motion_dot": 0.00108231,
        "meta_mean_motion_ddot": 0,
        "tle_line1": "1 66428U 25259G   25336.25003472  .00108231  00000+0  18315-2 0  9995",
        "tle_line2": "2 66428  42.9994 108.6640 0001400 256.1241  68.5167 15.50483155  4594"
      },
      "geometry": {
        "type": "Point",
        "coordinates": [
          104.71074619877123,
          -1.8950130795351863
        ]
      }
    },
    {
      "type": "Feature",
      "properties": {
        "norad_id": 66429,
        "name": "STARLINK-35533",
        "group": "last-30-days",
        "lat": -0.5871349055604489,
        "lon": 106.109249145915,
        "alt_km": 415.1529514774729,
        "timestamp": "2025-12-02T13:52:16.064573+00:00",
        "meta_object_name": "STARLINK-35533",
        "meta_object_id": "2025-259H",
        "meta_epoch": "2025-12-02T06:00:02.999808",
        "meta_mean_motion": 15.50482186,
        "meta_eccentricity": 0.00014494,
        "meta_inclination": 42.9995,
        "meta_ra_of_asc_node": 108.6578,
        "meta_arg_of_pericenter": 255.5858,
        "meta_mean_anomaly": 70.9741,
        "meta_ephemeris_type": 0,
        "meta_classification_type": "U",
        "meta_norad_cat_id": 66429,
        "meta_element_set_no": 999,
        "meta_rev_at_epoch": 459,
        "meta_bstar": 0.0018555795,
        "meta_mean_motion_dot": 0.00109675,
        "meta_mean_motion_ddot": 0,
        "tle_line1": "1 66429U 25259H   25336.25003472  .00109675  00000+0  18556-2 0  9996",
        "tle_line2": "2 66429  42.9995 108.6578 0001449 255.5858  70.9741 15.50482186  4594"
      },
      "geometry": {
        "type": "Point",
        "coordinates": [
          106.109249145915,
          -0.5871349055604489
        ]
      }
    },
    {
      "type": "Feature",
      "properties": {
        "norad_id": 66430,
        "name": "STARLINK-35470",
        "group": "last-30-days",
        "lat": 0.7102241520331438,
        "lon": 107.49813654156127,
        "alt_km": 415.0145245003896,
        "timestamp": "2025-12-02T13:52:16.064585+00:00",
        "meta_object_name": "STARLINK-35470",
        "meta_object_id": "2025-259J",
        "meta_epoch": "2025-12-02T06:00:02.999808",
        "meta_mean_motion": 15.50473937,
        "meta_eccentricity": 0.00014702,
        "meta_inclination": 42.9994,
        "meta_ra_of_asc_node": 108.6543,
        "meta_arg_of_pericenter": 257.2536,
        "meta_mean_anomaly": 71.2187,
        "meta_ephemeris_type": 0,
        "meta_classification_type": "U",
        "meta_norad_cat_id": 66430,
        "meta_element_set_no": 999,
        "meta_rev_at_epoch": 459,
        "meta_bstar": 0.0018561519,
        "meta_mean_motion_dot": 0.00109676,
        "meta_mean_motion_ddot": 0,
        "tle_line1": "1 66430U 25259J   25336.25003472  .00109676  00000+0  18562-2 0  9996",
        "tle_line2": "2 66430  42.9994 108.6543 0001470 257.2536  71.2187 15.50473937  4595"
      },
      "geometry": {
        "type": "Point",
        "coordinates": [
          107.49813654156127,
          0.7102241520331438
        ]
      }
    },
    {
      "type": "Feature",
      "properties": {
        "norad_id": 66431,
        "name": "STARLINK-35439",
        "group": "last-30-days",
        "lat": 2.01891977621338,
        "lon": 108.89792341454863,
        "alt_km": 414.9336099884804,
        "timestamp": "2025-12-02T13:52:16.064595+00:00",
        "meta_object_name": "STARLINK-35439",
        "meta_object_id": "2025-259K",
        "meta_epoch": "2025-12-02T06:00:02.999808",
        "meta_mean_motion": 15.50475445,
        "meta_eccentricity": 0.00014742,
        "meta_inclination": 42.9994,
        "meta_ra_of_asc_node": 108.6483,
        "meta_arg_of_pericenter": 253.319,
        "meta_mean_anomaly": 77.0718,
        "meta_ephemeris_type": 0,
        "meta_classification_type": "U",
        "meta_norad_cat_id": 66431,
        "meta_element_set_no": 999,
        "meta_rev_at_epoch": 459,
        "meta_bstar": 0.0018616887,
        "meta_mean_motion_dot": 0.00110015,
        "meta_mean_motion_ddot": 0,
        "tle_line1": "1 66431U 25259K   25336.25003472  .00110015  00000+0  18617-2 0  9997",
        "tle_line2": "2 66431  42.9994 108.6483 0001474 253.3190  77.0718 15.50475445  4596"
      },
      "geometry": {
        "type": "Point",
        "coordinates": [
          108.89792341454863,
          2.01891977621338
        ]
      }
    }
  ]
}